[{"OBJECT_NAME":"LAPAN-A3","OBJECT_ID":"2016-040E","EPOCH":"2026-03-09T23:01:57.724896","MEAN_MOTION":15.3238951,"ECCENTRICITY":0.00109839,"INCLINATION":97.1488,"RA_OF_ASC_NODE":68.4254,"ARG_OF_PERICENTER":22.062,"MEAN_ANOMALY":338.1093,"EPHEMERIS_TYPE":0,"CLASSIFICATION_TYPE":"U","NORAD_CAT_ID":41603,"ELEMENT_SET_NO":999,"REV_AT_EPOCH":53961,"BSTAR":0.00017567445,"MEAN_MOTION_DOT":5.428e-5,"MEAN_MOTION_DDOT":0},{"OBJECT_NAME":"STARLINK-34873","OBJECT_ID":"2025-189Z","EPOCH":"2026-03-09T15:21:37.481760","MEAN_MOTION":15.30192814,"ECCENTRICITY":0.0001115,"INCLINATION":53.1607,"RA_OF_ASC_NODE":206.6533,"ARG_OF_PERICENTER":101.6411,"MEAN_ANOMALY":258.4715,"EPHEMERIS_TYPE":0,"CLASSIFICATION_TYPE":"U","NORAD_CAT_ID":65346,"ELEMENT_SET_NO":999,"REV_AT_EPOCH":3111,"BSTAR":0.00045328,"MEAN_MOTION_DOT":0.00013087,"MEAN_MOTION_DDOT":0}]
